{"type": "FeatureCollection", "features": [ {"type": "Feature", "properties": {"norad_id": 37867, "name": "COSMOS 2476 (744)", "group": "gnss", "lat": 18.833710373587834, "lon": -109.69653991140699, "alt_km": 19111.28823664223, "timestamp": "2025-12-06T18:50:10.409902+00:00", "meta": {"OBJECT_NAME": "COSMOS 2476 (744)", "OBJECT_ID": "2011-064A", "EPOCH": "2025-12-02T19:57:36.313920", "MEAN_MOTION": 2.13101261, "ECCENTRICITY": 0.00239603, "INCLINATION": 65.1573, "RA_OF_ASC_NODE": 79.5068, "ARG_OF_PERICENTER": 233.4935, "MEAN_ANOMALY": 133.1658, "EPHEMERIS_TYPE": 0, "CLASSIFICATION_TYPE": "U", "NORAD_CAT_ID": 37867, "ELEMENT_SET_NO": 999, "REV_AT_EPOCH": 10958, "BSTAR": 0, "MEAN_MOTION_DOT": -2.2e-07, "MEAN_MOTION_DDOT": 0}, "tle": {"line1": "1 37867U 11064A   25336.83167030 -.00000022  00000+0  00000+0 0  9993", "line2": "2 37867  65.1573  79.5068 0023960 233.4935 133.1658  2.13101261109581"}}, "geometry": {"type": "Point", "coordinates": [-109.69653991140699, 18.833710373587834]}}, {"type": "Feature", "properties": {"norad_id": 37868, "name": "COSMOS 2477 (745)", "group": "gnss", "lat": -17.632136791394018, "lon": 71.00647227279036, "alt_km": 19147.96101631388, "timestamp": "2025-12-06T18:50:10.409923+00:00", "meta": {"OBJECT_NAME": "COSMOS 2477 (745)", "OBJECT_ID": "2011-064B", "EPOCH": "2025-12-01T05:34:43.743072", "MEAN_MOTION": 2.1310269, "ECCENTRICITY": 0.00209845, "INCLINATION": 65.1625, "RA_OF_ASC_NODE": 79.6383, "ARG_OF_PERICENTER": 233.8301, "MEAN_ANOMALY": 166.8442, "EPHEMERIS_TYPE": 0, "CLASSIFICATION_TYPE": "U", "NORAD_CAT_ID": 37868, "ELEMENT_SET_NO": 999, "REV_AT_EPOCH": 10954, "BSTAR": 0, "MEAN_MOTION_DOT": -1.2e-07, "MEAN_MOTION_DDOT": 0}, "tle": {"line1": "1 37868U 11064B   25335.23245073 -.00000012  00000+0  00000+0 0  9990", "line2": "2 37868  65.1625  79.6383 0020984 233.8301 166.8442  2.13102690109542"}}, "geometry": {"type": "Point", "coordinates": [71.00647227279036, -17.632136791394018]}}, {"type": "Feature", "properties": {"norad_id": 37869, "name": "COSMOS 2475 (743)", "group": "gnss", "lat": -54.335975867380654, "lon": 39.383977020284114, "alt_km": 19091.777208564356, "timestamp": "2025-12-06T18:50:10.409936+00:00", "meta": {"OBJECT_NAME": "COSMOS 2475 (743)", "OBJECT_ID": "2011-064C", "EPOCH": "2025-12-02T03:10:18.719904", "MEAN_MOTION": 2.13101359, "ECCENTRICITY": 0.0026048, "INCLINATION": 65.1701, "RA_OF_ASC_NODE": 79.6277, "ARG_OF_PERICENTER": 248.2415, "MEAN_ANOMALY": 78.6584, "EPHEMERIS_TYPE": 0, "CLASSIFICATION_TYPE": "U", "NORAD_CAT_ID": 37869, "ELEMENT_SET_NO": 999, "REV_AT_EPOCH": 10956, "BSTAR": 0, "MEAN_MOTION_DOT": -1.8e-07, "MEAN_MOTION_DDOT": 0}, "tle": {"line1": "1 37869U 11064C   25336.13216111 -.00000018  00000+0  00000+0 0  9998", "line2": "2 37869  65.1701  79.6277 0026048 248.2415  78.6584  2.13101359109563"}}, "geometry": {"type": "Point", "coordinates": [39.383977020284114, -54.335975867380654]}}, {"type": "Feature", "properties": {"norad_id": 37948, "name": "BEIDOU-2 IGSO-5 (C10)", "group": "gnss", "lat": 2.8516721461128642, "lon": 91.3364589586266, "alt_km": 35454.56884847112, "timestamp": "2025-12-06T18:50:10.409951+00:00", "meta": {"OBJECT_NAME": "BEIDOU-2 IGSO-5 (C10)", "OBJECT_ID": "2011-073A", "EPOCH": "2025-12-05T19:16:03.972000", "MEAN_MOTION": 1.00291877, "ECCENTRICITY": 0.01105894, "INCLINATION": 48.0339, "RA_OF_ASC_NODE": 273.9433, "ARG_OF_PERICENTER": 222.1593, "MEAN_ANOMALY": 320.3155, "EPHEMERIS_TYPE": 0, "CLASSIFICATION_TYPE": "U", "NORAD_CAT_ID": 37948, "ELEMENT_SET_NO": 999, "REV_AT_EPOCH": 5119, "BSTAR": 0, "MEAN_MOTION_DOT": -1.79e-06, "MEAN_MOTION_DDOT": 0}, "tle": {"line1": "1 37948U 11073A   25339.80282375 -.00000179  00000+0  00000+0 0  9996", "line2": "2 37948  48.0339 273.9433 0110589 222.1593 320.3155  1.00291877 51199"}}, "geometry": {"type": "Point", "coordinates": [91.3364589586266, 2.8516721461128642]}}, {"type": "Feature", "properties": {"norad_id": 37951, "name": "LUCH 5A (SDCM/PRN 140)", "group": "gnss", "lat": 8.26558674246632, "lon": 165.29005182285232, "alt_km": 35783.44430852056, "timestamp": "2025-12-06T18:50:10.409963+00:00", "meta": {"OBJECT_NAME": "LUCH 5A (SDCM/PRN 140)", "OBJECT_ID": "2011-074B", "EPOCH": "2025-12-06T02:28:28.328160", "MEAN_MOTION": 1.00273651, "ECCENTRICITY": 0.0005891, "INCLINATION": 8.2623, "RA_OF_ASC_NODE": 76.6824, "ARG_OF_PERICENTER": 176.2181, "MEAN_ANOMALY": 26.3668, "EPHEMERIS_TYPE": 0, "CLASSIFICATION_TYPE": "U", "NORAD_CAT_ID": 37951, "ELEMENT_SET_NO": 999, "REV_AT_EPOCH": 5111, "BSTAR": 0, "MEAN_MOTION_DOT": -4.5e-07, "MEAN_MOTION_DDOT": 0}, "tle": {"line1": "1 37951U 11074B   25340.10310565 -.00000045  00000+0  00000+0 0  9991", "line2": "2 37951   8.2623  76.6824 0005891 176.2181  26.3668  1.00273651 51114"}}, "geometry": {"type": "Point", "coordinates": [165.29005182285232, 8.26558674246632]}}, {"type": "Feature", "properties": {"norad_id": 38091, "name": "BEIDOU-2 G5 (C05)", "group": "gnss", "lat": -0.6987227363544198, "lon": 57.219875762292034, "alt_km": 35812.49861328194, "timestamp": "2025-12-06T18:50:10.409975+00:00", "meta": {"OBJECT_NAME": "BEIDOU-2 G5 (C05)", "OBJECT_ID": "2012-008A", "EPOCH": "2025-12-06T05:22:59.674656", "MEAN_MOTION": 1.00273238, "ECCENTRICITY": 0.00124834, "INCLINATION": 3.0923, "RA_OF_ASC_NODE": 70.7281, "ARG_OF_PERICENTER": 226.1461, "MEAN_ANOMALY": 277.8607, "EPHEMERIS_TYPE": 0, "CLASSIFICATION_TYPE": "U", "NORAD_CAT_ID": 38091, "ELEMENT_SET_NO": 999, "REV_AT_EPOCH": 5043, "BSTAR": 0, "MEAN_MOTION_DOT": 6.3e-07, "MEAN_MOTION_DDOT": 0}, "tle": {"line1": "1 38091U 12008A   25340.22430179  .00000063  00000+0  00000+0 0  9991", "line2": "2 38091   3.0923  70.7281 0012483 226.1461 277.8607  1.00273238 50430"}}, "geometry": {"type": "Point", "coordinates": [57.219875762292034, -0.6987227363544198]}}, {"type": "Feature", "properties": {"norad_id": 38250, "name": "BEIDOU-2 M3 (C11)", "group": "gnss", "lat": -47.98799458436665, "lon": -179.985636164772, "alt_km": 21474.55628255165, "timestamp": "2025-12-06T18:50:10.409987+00:00", "meta": {"OBJECT_NAME": "BEIDOU-2 M3 (C11)", "OBJECT_ID": "2012-018A", "EPOCH": "2025-12-05T21:12:32.531040", "MEAN_MOTION": 1.86229708, "ECCENTRICITY": 0.00244284, "INCLINATION": 55.926, "RA_OF_ASC_NODE": 311.388, "ARG_OF_PERICENTER": 273.8805, "MEAN_ANOMALY": 85.8231, "EPHEMERIS_TYPE": 0, "CLASSIFICATION_TYPE": "U", "NORAD_CAT_ID": 38250, "ELEMENT_SET_NO": 999, "REV_AT_EPOCH": 9234, "BSTAR": 0, "MEAN_MOTION_DOT": -7e-07, "MEAN_MOTION_DDOT": 0}, "tle": {"line1": "1 38250U 12018A   25339.88370985 -.00000070  00000+0  00000+0 0  9996", "line2": "2 38250  55.9260 311.3880 0024428 273.8805  85.8231  1.86229708 92342"}}, "geometry": {"type": "Point", "coordinates": [-179.985636164772, -47.98799458436665]}}, {"type": "Feature", "properties": {"norad_id": 38251, "name": "BEIDOU-2 M4 (C12)", "group": "gnss", "lat": -51.20635115807778, "lon": -107.07209231742291, "alt_km": 21491.334266588554, "timestamp": "2025-12-06T18:50:10.409998+00:00", "meta": {"OBJECT_NAME": "BEIDOU-2 M4 (C12)", "OBJECT_ID": "2012-018B", "EPOCH": "2025-12-05T06:41:27.869856", "MEAN_MOTION": 1.86229397, "ECCENTRICITY": 0.00155808, "INCLINATION": 55.8281, "RA_OF_ASC_NODE": 310.638, "ARG_OF_PERICENTER": 277.012, "MEAN_ANOMALY": 82.7935, "EPHEMERIS_TYPE": 0, "CLASSIFICATION_TYPE": "U", "NORAD_CAT_ID": 38251, "ELEMENT_SET_NO": 999, "REV_AT_EPOCH": 9233, "BSTAR": 0, "MEAN_MOTION_DOT": -6.9e-07, "MEAN_MOTION_DDOT": 0}, "tle": {"line1": "1 38251U 12018B   25339.27879479 -.00000069  00000+0  00000+0 0  9990", "line2": "2 38251  55.8281 310.6380 0015580 277.0120  82.7935  1.86229397 92337"}}, "geometry": {"type": "Point", "coordinates": [-107.07209231742291, -51.20635115807778]}}, {"type": "Feature", "properties": {"norad_id": 38652, "name": "SES-5 (EGNOS/PRN 136)", "group": "gnss", "lat": 0.06042853147932546, "lon": 3.347742500211223, "alt_km": 35789.3923903957, "timestamp": "2025-12-06T18:50:10.410014+00:00", "meta": {"OBJECT_NAME": "SES-5 (EGNOS/PRN 136)", "OBJECT_ID": "2012-036A", "EPOCH": "2025-12-06T03:25:00.412032", "MEAN_MOTION": 1.00270176, "ECCENTRICITY": 0.00021688, "INCLINATION": 0.057, "RA_OF_ASC_NODE": 305.1672, "ARG_OF_PERICENTER": 309.688, "MEAN_ANOMALY": 236.5583, "EPHEMERIS_TYPE": 0, "CLASSIFICATION_TYPE": "U", "NORAD_CAT_ID": 38652, "ELEMENT_SET_NO": 999, "REV_AT_EPOCH": 4253, "BSTAR": 0, "MEAN_MOTION_DOT": 4.2e-07, "MEAN_MOTION_DDOT": 0}, "tle": {"line1": "1 38652U 12036A   25340.14236588  .00000042  00000+0  00000+0 0  9991", "line2": "2 38652   0.0570 305.1672 0002168 309.6880 236.5583  1.00270176 42533"}}, "geometry": {"type": "Point", "coordinates": [3.347742500211223, 0.06042853147932546]}}, {"type": "Feature", "properties": {"norad_id": 38775, "name": "BEIDOU-2 M6 (C14)", "group": "gnss", "lat": 43.92630850058166, "lon": -150.51862807583663, "alt_km": 21545.420288973743, "timestamp": "2025-12-06T18:50:10.410026+00:00", "meta": {"OBJECT_NAME": "BEIDOU-2 M6 (C14)", "OBJECT_ID": "2012-050B", "EPOCH": "2025-12-06T01:31:40.746720", "MEAN_MOTION": 1.86230698, "ECCENTRICITY": 0.00109594, "INCLINATION": 56.3729, "RA_OF_ASC_NODE": 69.2891, "ARG_OF_PERICENTER": 345.8795, "MEAN_ANOMALY": 14.1028, "EPHEMERIS_TYPE": 0, "CLASSIFICATION_TYPE": "U", "NORAD_CAT_ID": 38775, "ELEMENT_SET_NO": 999, "REV_AT_EPOCH": 8971, "BSTAR": 0, "MEAN_MOTION_DOT": -4.7e-07, "MEAN_MOTION_DDOT": 0}, "tle": {"line1": "1 38775U 12050B   25340.06366605 -.00000047  00000+0  00000+0 0  9994", "line2": "2 38775  56.3729  69.2891 0010959 345.8795  14.1028  1.86230698 89718"}}, "geometry": {"type": "Point", "coordinates": [-150.51862807583663, 43.92630850058166]}}]}